COSMOS 2251 DEB         
1 36622U 93036BEL 17345.71020543  .00000307  00000-0  65873-4 0  9995
2 36622  74.0227   7.4342 0087140 155.8227 204.7068 14.60827443413759
